UNKNOWN                 
1 81052U          26035.58850631  .00006397  00000+0  16739-2 0  9990
2 81052  65.7690 253.2830 0562906 281.9235  71.9278 13.83809404607762
UNKNOWN                 
1 81069U          26040.21878376  .00003350  00000+0  44224-2 0  9996
2 81069 100.3845 309.8948 0064277 262.8046  96.5781 13.60983622523884
UNKNOWN                 
1 81078U          26040.34192005  .00000234  00000+0  81756-2 0  9997
2 81078  65.1106 166.3972 0190618 350.7664  38.1637 11.22469214501203
UNKNOWN                 
1 81111U          26039.89231639  .00019291  00000+0  39427-2 0  9991
2 81111  62.8905 324.5739 3850924 359.4906   0.2428  7.57679478276342
UNKNOWN                 
1 81123U          26040.05002292  .00001096  00000+0  10702-2 0  9994
2 81123  99.9669 129.9248 0003151 246.1367 113.9454 13.81746061614330
UNKNOWN                 
1 81134U          26039.35996774  .00000440  00000+0  15865-2 0  9991
2 81134  90.2488   5.3189 0023702 237.8586 122.0233 12.93004173470058
UNKNOWN                 
1 81161U          26016.31042138  .00000316  00000+0  37583-3 0  9992
2 81161 100.4168 226.5127 0062179 196.2360 163.6795 13.75682856560881
UNKNOWN                 
1 81219U          26041.08088562  .00000607  00000+0  55100-3 0  9997
2 81219  82.9285 321.5699 0023000  48.8145 311.4994 13.81855925615715
UNKNOWN                 
1 81228U          26037.96373021  .00009311  00000+0  27935-2 0  9991
2 81228  70.5219 150.4868 0065441 279.0047  80.3683 14.41716901634193
UNKNOWN                 
1 81254U          26034.13540153  .00003851  00000+0  25051-2 0  9998
2 81254 100.3808 108.4103 0072343 290.6335  68.7078 14.01943944620234
UNKNOWN                 
1 81279U          26041.38608145  .00001336  00000+0  52137-3 0  9998
2 81279  98.1201 101.0119 0206853 209.9535 148.9678 14.20123067471067
UNKNOWN                 
1 81301U          26032.14734417  .00000329  00000+0  39768-3 0  9996
2 81301  66.7579 175.4712 0090906 200.1896 340.7495 13.76743071613294
UNKNOWN                 
1 81311U          26034.43104271  .00000643  00000+0  14042-3 0  9997
2 81311  98.7233  99.1741 0130405 323.9975  45.5198 14.56630917647269
UNKNOWN                 
1 81317U          26035.50293748  .00000143  00000+0  34472-3 0  9994
2 81317  67.1365  58.2469 0213525 356.2294 154.9048 13.38035184595829
UNKNOWN                 
1 81323U          26035.93048394  .00017936  00000+0  22424-2 0  9994
2 81323  65.7483 236.9737 0339208 285.0241  71.3555 14.49245811120903
UNKNOWN                 
1 81329U          26036.97983144  .00007832  00000+0  27507-2 0  9997
2 81329  65.8278   3.8098 0834218   4.8842 355.9719 13.22477589585387
UNKNOWN                 
1 81343U          26041.37457737  .00006956  00000+0  48988-3 0  9990
2 81343  85.8776 167.4730 0009427  54.0275 306.1832 15.04836870463283
UNKNOWN                 
1 81359U          26040.06803310  .00000490  00000+0  52443-3 0  9992
2 81359  66.7967 272.3773 0119965 285.8720  72.9157 13.78937766613528
UNKNOWN                 
1 81366U          26035.16836255  .00002052  00000+0  74787-3 0  9990
2 81366  65.8856 305.5749 0711188  55.5684 311.0505 13.45298664 73144
UNKNOWN                 
1 81371U          26037.22961727  .00006770  00000+0  10753-2 0  9991
2 81371  98.8092 143.1192 0069275 190.8943 169.0765 14.70865336649996
UNKNOWN                 
1 81386U          26029.88772037  .00006812  00000+0  22178-2 0  9995
2 81386  71.0468 252.0345 0086507   7.9389 352.3091 14.36919065631150
UNKNOWN                 
1 81390U          26018.98013495 -.00000075  00000+0 -19210-3 0  9996
2 81390 103.1077 275.1799 0169605  77.6089 284.3892 12.35626022504695
UNKNOWN                 
1 81392U          26027.24031549  .00004787  00000+0  44699-2 0  9997
2 81392 100.4023  25.0693 0041455 279.1497 148.4912 13.82040403608466
UNKNOWN                 
1 81427U          26035.12138342  .00000710  00000+0  43667-3 0  9998
2 81427  98.7448 280.5344 0083050 248.3094 110.9216 14.07056311559272
UNKNOWN                 
1 81438U          26036.39458304  .00003322  00000+0  48396-2 0  9998
2 81438 100.3205 275.4666 0056763 304.9355  54.6455 13.55054910599341
UNKNOWN                 
1 81439U          26041.37299231 -.00000054  00000+0 -49753-5 0  9997
2 81439  67.1617  26.4857 0597315 166.7087 195.0479 12.62639845269426
UNKNOWN                 
1 81449U          26041.47377517  .00103184  00000+0  59600-2 0  9998
2 81449  66.7895 176.4225 0020427  47.6183 312.6682 15.11537359642549
UNKNOWN                 
1 81478U          26037.24891535  .00004397  00000+0  15762-2 0  9998
2 81478  98.9519 315.5970 0143970 197.0014 316.1416 14.28839097630863
UNKNOWN                 
1 81488U          26037.87882142  .00000128  00000+0  24572-3 0  9990
2 81488  99.9972 276.3676 0043994 220.1546 200.1809 13.56539331604247
UNKNOWN                 
1 81497U          26036.50868252  .00004608  00000+0  41320-2 0  9991
2 81497 100.2993 301.4115 0027329 236.1138 303.1175 13.84639692223870
UNKNOWN                 
1 81499U          26035.27476921  .00002987  00000+0  81971-3 0  9999
2 81499  74.0488 121.0582 0002906 265.5939  94.4888 14.47501696490163
UNKNOWN                 
1 81535U          26041.46173531  .00000911  00000+0  38961-3 0  9995
2 81535  98.1943 123.7872 0233873 336.0520  22.9914 14.13590504395830
UNKNOWN                 
1 81536U          26041.10645137  .00000533  00000+0  35184-2 0  9996
2 81536 101.9654 267.8847 0018773 185.6661 328.2305 12.55947734559269
UNKNOWN                 
1 81537U          26041.18127128  .00000386  00000+0  25152-3 0  9991
2 81537  71.0418 346.2680 0074846  61.9572 298.9091 14.07141806628821
UNKNOWN                 
1 81599U          26039.30626147  .00000532  00000+0  10504-2 0  9992
2 81599  67.2942 156.4355 0245566  41.9243 347.5725 13.31535767592745
UNKNOWN                 
1 81605U          26040.01520044 -.00001203  00000+0 -44637-2 0  9991
2 81605  56.4387  48.4562 0164692 219.3516 139.5348 12.81528639193673
UNKNOWN                 
1 81614U          26040.94347468  .00006264  00000+0  38678-1 0  9997
2 81614 101.8281  39.9634 0363074  35.0869 327.3543 12.37858134545307
UNKNOWN                 
1 81615U          26040.05376155  .00002113  00000+0  77820-3 0  9998
2 81615  65.8283 286.2233 0768043 109.3003 259.2685 13.34303938590643
UNKNOWN                 
1 81617U          26040.42028852  .00000392  00000+0  25810-2 0  9997
2 81617 101.2642 217.3226 0034403 130.7794 229.6276 12.57583787560489
UNKNOWN                 
1 81624U          26036.22013070  .00008562  00000+0  13333-2 0  9998
2 81624  66.9764  16.2944 0065777 194.6820 165.2394 14.71926629647722
UNKNOWN                 
1 81640U          26040.32465905  .00000594  00000+0  59937-3 0  9998
2 81640  65.8280  12.1602 0977663  53.7289 315.0085 12.57264039517446
UNKNOWN                 
1 81652U          26041.22861912  .00000363  00000+0  49008-3 0  9991
2 81652 102.1466 307.0625 0364145 226.9653 288.7286 13.44479136586645
UNKNOWN                 
1 81667U          26040.10134969  .00002475  00000+0  66722-3 0  9996
2 81667  74.0398 287.3149 0016137 208.0320 151.9972 14.48384149465092
UNKNOWN                 
1 81674U          26035.53700502  .00000896  00000+0  55035-3 0  9997
2 81674  66.8209 228.7911 0026829 195.9151 195.3195 14.10064697621300
UNKNOWN                 
1 81683U          26040.50822459  .00003642  00000+0  78965-3 0  9995
2 81683  81.2122 233.3719 0023873 117.0447 243.3190 14.57828407644427
UNKNOWN                 
1 81693U          26033.60328402  .00000950  00000+0  71303-2 0  9995
2 81693 101.0975  94.3495 0365424 344.6978  14.3266 12.25967259974124
UNKNOWN                 
1 81745U          26039.28286455  .00002174  00000+0  69616-3 0  9999
2 81745  70.9995 261.5394 0003672 149.7279 210.4070 14.40678835638033
UNKNOWN                 
1 81775U          26039.35538518  .00008571  00000+0  26120-2 0  9999
2 81775  82.9210 176.5077 0015151  74.8658 285.4210 14.41835297633576
UNKNOWN                 
1 81779U          26041.52264379 -.00006413  00000+0 -38745+0 0  9994
2 81779  54.4928 120.0021 1501424 106.7544 270.2909  9.34022793485900
UNKNOWN                 
1 81792U          26036.12073478  .00002293  00000+0  82072-3 0  9993
2 81792  65.8323 333.6358 0895407 258.4387  91.4916 13.11228588 87168
UNKNOWN                 
1 81812U          26041.22782305  .00004848  00000+0  34075-1 0  9995
2 81812 103.8098 325.5364 0243041 131.9911 230.2122 12.37843750547927
UNKNOWN                 
1 81816U          26035.86369788  .00002621  00000+0  19454-2 0  9990
2 81816  66.2388 161.1692 0175614 216.1443 142.7660 13.89631341616862
UNKNOWN                 
1 81819U          26037.22426550  .00001063  00000+0  75000-2 0  9994
2 81819 102.1753 140.1724 0030187  11.5669 348.6087 12.47786385554937
UNKNOWN                 
1 81824U          26039.37036699  .00006198  00000+0  21277-2 0  9990
2 81824  65.8428 179.8664 0045226 304.0522  55.6282 14.36157209632865
UNKNOWN                 
1 81833U          26037.33808237  .00000253  00000+0  89180-3 0  9993
2 81833  90.2457   4.1228 0025038 237.7419 122.1273 12.93750280459700
UNKNOWN                 
1 81838U          26026.69871619  .00010833  00000+0  23584-2 0  9999
2 81838  67.7595 148.7226 0041952 323.4616 103.9601 14.57662167639884
UNKNOWN                 
1 81844U          26036.29361083  .00007523  00000+0  26617-2 0  9994
2 81844  82.9066 237.8122 0061522 345.9227  14.0243 14.33443038630704
UNKNOWN                 
1 81845U          26040.48194302  .00003786  00000+0  41411-3 0  9996
2 81845  97.6768 230.3923 0088339 111.3986 279.6775 14.85561083658242
UNKNOWN                 
1 81864U          26033.13071996  .00002440  00000+0  94023-3 0  9997
2 81864  65.6733 306.7363 0766542 350.9348   7.8479 13.32666652557685
